[{"OBJECT_NAME":"STARLINK-4138","OBJECT_ID":"2022-101J","EPOCH":"2026-03-09T07:56:02.862816","MEAN_MOTION":15.08853254,"ECCENTRICITY":0.00011915,"INCLINATION":53.2169,"RA_OF_ASC_NODE":75.731,"ARG_OF_PERICENTER":79.7504,"MEAN_ANOMALY":280.3622,"EPHEMERIS_TYPE":0,"CLASSIFICATION_TYPE":"U","NORAD_CAT_ID":53535,"ELEMENT_SET_NO":999,"REV_AT_EPOCH":19611,"BSTAR":0.00014270125,"MEAN_MOTION_DOT":1.985e-5,"MEAN_MOTION_DDOT":0},{"OBJECT_NAME":"SEDNA-2","OBJECT_ID":"2025-009DQ","EPOCH":"2026-03-09T19:10:28.282944","MEAN_MOTION":15.10492622,"ECCENTRICITY":0.0010309,"INCLINATION":97.4615,"RA_OF_ASC_NODE":144.8075,"ARG_OF_PERICENTER":53.026,"MEAN_ANOMALY":307.1912,"EPHEMERIS_TYPE":0,"CLASSIFICATION_TYPE":"U","NORAD_CAT_ID":63153,"ELEMENT_SET_NO":999,"REV_AT_EPOCH":6311,"BSTAR":0.00049393403,"MEAN_MOTION_DOT":8.085e-5,"MEAN_MOTION_DDOT":0}]
