STARLINK-4138           
1 53535U 22101J   26068.33058869  .00001985  00000+0  14270-3 0  9990
2 53535  53.2169  75.7310 0001191  79.7504 280.3622 15.08853254196118
SEDNA-2                 
1 63153U 25009DQ  26068.79893845  .00008085  00000+0  49393-3 0  9990
2 63153  97.4615 144.8075 0010309  53.0260 307.1912 15.10492622 63116
